ONEWEB-0431             
1 51630U 22012J   26059.24825323 -.00000619  00000+0 -18091-2 0  9991
2 51630  87.8766  57.9570 0002332  99.8390 260.3001 13.10371690195075
ONEWEB-0434             
1 51631U 22012K   26059.22529181  .00000328  00000+0  90384-3 0  9994
2 51631  87.8754  57.9907 0001635  67.7374 292.3927 13.10370118195052
ONEWEB-0435             
1 51632U 22012L   26059.23344817 -.00000126  00000+0 -39686-3 0  9993
2 51632  87.8752  57.9797 0001679 100.5382 259.5934 13.10369647195048
ONEWEB-0436             
1 51633U 22012M   26059.16787616  .00000016  00000+0  73014-5 0  9995
2 51633  87.9140  27.4875 0001872  89.2162 270.9184 13.17649683199321
ONEWEB-0438             
1 51634U 22012N   26059.29321574  .00000720  00000+0  20250-2 0  9990
2 51634  87.8756  57.9683 0001836  81.7104 278.4231 13.10372342195085
ONEWEB-0439             
1 51635U 22012P   26059.22018242  .00000593  00000+0  16636-2 0  9990
2 51635  87.8756  57.9722 0001733  88.1971 271.9354 13.10369020195059
ONEWEB-0442             
1 51636U 22012Q   26059.16029249  .00000031  00000+0  45995-4 0  9992
2 51636  87.9131  27.5293 0002024  64.9524 295.1818 13.17648234199314
ONEWEB-0443             
1 51637U 22012R   26059.17969481  .00000117  00000+0  26739-3 0  9994
2 51637  87.9128  27.5280 0001545  79.9078 280.2227 13.17650125199360
ONEWEB-0444             
1 51638U 22012S   26059.28657687  .00000649  00000+0  18235-2 0  9990
2 51638  87.8760  57.9575 0001785  88.1057 272.0275 13.10374077195079
ONEWEB-0445             
1 51639U 22012T   26059.00271862 -.00000049  00000+0 -17649-3 0  9993
2 51639  87.8765  57.9924 0002080  88.8987 271.2379 13.10369345195046
ONEWEB-0446             
1 51640U 22012U   26059.28491446  .00000695  00000+0  19534-2 0  9996
2 51640  87.8759  57.9739 0002026  87.2099 272.9260 13.10374200195067
ONEWEB-0448             
1 51641U 22012V   26059.28989668  .00000692  00000+0  19451-2 0  9990
2 51641  87.8756  57.9713 0001808  89.4351 270.6984 13.10372970195036
ONEWEB-0449             
1 51642U 22012W   26059.29487447  .00000621  00000+0  17419-2 0  9994
2 51642  87.8765  57.9481 0001675  73.6264 286.5047 13.10371407195040
ONEWEB-0451             
1 51643U 22012X   26058.93670439 -.00000009  00000+0 -56599-4 0  9996
2 51643  87.9141  27.5288 0001828  79.1471 280.9866 13.17648368199275
ONEWEB-0452             
1 51644U 22012Y   26059.16282935  .00000062  00000+0  12633-3 0  9990
2 51644  87.9130  27.5312 0001598  77.9209 282.2102 13.17648943199313
ONEWEB-0456             
1 51646U 22012AA  26059.22846345  .00000104  00000+0  26124-3 0  9997
2 51646  87.8773  57.9390 0001816  93.3696 266.7639 13.10369242195071
ONEWEB-0457             
1 51647U 22012AB  26059.28160468  .00000608  00000+0  17039-2 0  9992
2 51647  87.8761  57.9618 0002190  78.3862 281.7511 13.10377300195087
