[{"OBJECT_NAME":"ONEWEB-0431","OBJECT_ID":"2022-012J","EPOCH":"2026-02-28T05:57:29.079072","MEAN_MOTION":13.1037169,"ECCENTRICITY":0.00023326,"INCLINATION":87.8766,"RA_OF_ASC_NODE":57.957,"ARG_OF_PERICENTER":99.839,"MEAN_ANOMALY":260.3001,"EPHEMERIS_TYPE":0,"CLASSIFICATION_TYPE":"U","NORAD_CAT_ID":51630,"ELEMENT_SET_NO":999,"REV_AT_EPOCH":19507,"BSTAR":-0.0018091346,"MEAN_MOTION_DOT":-6.19e-6,"MEAN_MOTION_DDOT":0},{"OBJECT_NAME":"ONEWEB-0434","OBJECT_ID":"2022-012K","EPOCH":"2026-02-28T05:24:25.212384","MEAN_MOTION":13.10370118,"ECCENTRICITY":0.00016354,"INCLINATION":87.8754,"RA_OF_ASC_NODE":57.9907,"ARG_OF_PERICENTER":67.7374,"MEAN_ANOMALY":292.3927,"EPHEMERIS_TYPE":0,"CLASSIFICATION_TYPE":"U","NORAD_CAT_ID":51631,"ELEMENT_SET_NO":999,"REV_AT_EPOCH":19505,"BSTAR":0.00090384223,"MEAN_MOTION_DOT":3.28e-6,"MEAN_MOTION_DDOT":0},{"OBJECT_NAME":"ONEWEB-0435","OBJECT_ID":"2022-012L","EPOCH":"2026-02-28T05:36:09.921888","MEAN_MOTION":13.10369647,"ECCENTRICITY":0.0001679,"INCLINATION":87.8752,"RA_OF_ASC_NODE":57.9797,"ARG_OF_PERICENTER":100.5382,"MEAN_ANOMALY":259.5934,"EPHEMERIS_TYPE":0,"CLASSIFICATION_TYPE":"U","NORAD_CAT_ID":51632,"ELEMENT_SET_NO":999,"REV_AT_EPOCH":19504,"BSTAR":-0.00039685951,"MEAN_MOTION_DOT":-1.26e-6,"MEAN_MOTION_DDOT":0},{"OBJECT_NAME":"ONEWEB-0436","OBJECT_ID":"2022-012M","EPOCH":"2026-02-28T04:01:44.500224","MEAN_MOTION":13.17649683,"ECCENTRICITY":0.00018722,"INCLINATION":87.914,"RA_OF_ASC_NODE":27.4875,"ARG_OF_PERICENTER":89.2162,"MEAN_ANOMALY":270.9184,"EPHEMERIS_TYPE":0,"CLASSIFICATION_TYPE":"U","NORAD_CAT_ID":51633,"ELEMENT_SET_NO":999,"REV_AT_EPOCH":19932,"BSTAR":7.301388e-6,"MEAN_MOTION_DOT":1.6e-7,"MEAN_MOTION_DDOT":0},{"OBJECT_NAME":"ONEWEB-0438","OBJECT_ID":"2022-012N","EPOCH":"2026-02-28T07:02:13.839936","MEAN_MOTION":13.10372342,"ECCENTRICITY":0.00018363,"INCLINATION":87.8756,"RA_OF_ASC_NODE":57.9683,"ARG_OF_PERICENTER":81.7104,"MEAN_ANOMALY":278.4231,"EPHEMERIS_TYPE":0,"CLASSIFICATION_TYPE":"U","NORAD_CAT_ID":51634,"ELEMENT_SET_NO":999,"REV_AT_EPOCH":19508,"BSTAR":0.0020250409,"MEAN_MOTION_DOT":7.2e-6,"MEAN_MOTION_DDOT":0},{"OBJECT_NAME":"ONEWEB-0439","OBJECT_ID":"2022-012P","EPOCH":"2026-02-28T05:17:03.761088","MEAN_MOTION":13.1036902,"ECCENTRICITY":0.00017335,"INCLINATION":87.8756,"RA_OF_ASC_NODE":57.9722,"ARG_OF_PERICENTER":88.1971,"MEAN_ANOMALY":271.9354,"EPHEMERIS_TYPE":0,"CLASSIFICATION_TYPE":"U","NORAD_CAT_ID":51635,"ELEMENT_SET_NO":999,"REV_AT_EPOCH":19505,"BSTAR":0.0016635655,"MEAN_MOTION_DOT":5.93e-6,"MEAN_MOTION_DDOT":0},{"OBJECT_NAME":"ONEWEB-0442","OBJECT_ID":"2022-012Q","EPOCH":"2026-02-28T03:50:49.271136","MEAN_MOTION":13.17648234,"ECCENTRICITY":0.00020247,"INCLINATION":87.9131,"RA_OF_ASC_NODE":27.5293,"ARG_OF_PERICENTER":64.9524,"MEAN_ANOMALY":295.1818,"EPHEMERIS_TYPE":0,"CLASSIFICATION_TYPE":"U","NORAD_CAT_ID":51636,"ELEMENT_SET_NO":999,"REV_AT_EPOCH":19931,"BSTAR":4.5995046e-5,"MEAN_MOTION_DOT":3.1e-7,"MEAN_MOTION_DDOT":0},{"OBJECT_NAME":"ONEWEB-0443","OBJECT_ID":"2022-012R","EPOCH":"2026-02-28T04:18:45.631584","MEAN_MOTION":13.17650125,"ECCENTRICITY":0.00015454,"INCLINATION":87.9128,"RA_OF_ASC_NODE":27.528,"ARG_OF_PERICENTER":79.9078,"MEAN_ANOMALY":280.2227,"EPHEMERIS_TYPE":0,"CLASSIFICATION_TYPE":"U","NORAD_CAT_ID":51637,"ELEMENT_SET_NO":999,"REV_AT_EPOCH":19936,"BSTAR":0.00026739226,"MEAN_MOTION_DOT":1.17e-6,"MEAN_MOTION_DDOT":0},{"OBJECT_NAME":"ONEWEB-0444","OBJECT_ID":"2022-012S","EPOCH":"2026-02-28T06:52:40.241568","MEAN_MOTION":13.10374077,"ECCENTRICITY":0.0001785,"INCLINATION":87.876,"RA_OF_ASC_NODE":57.9575,"ARG_OF_PERICENTER":88.1057,"MEAN_ANOMALY":272.0275,"EPHEMERIS_TYPE":0,"CLASSIFICATION_TYPE":"U","NORAD_CAT_ID":51638,"ELEMENT_SET_NO":999,"REV_AT_EPOCH":19507,"BSTAR":0.0018234768,"MEAN_MOTION_DOT":6.49e-6,"MEAN_MOTION_DDOT":0},{"OBJECT_NAME":"ONEWEB-0445","OBJECT_ID":"2022-012T","EPOCH":"2026-02-28T00:03:54.888768","MEAN_MOTION":13.10369345,"ECCENTRICITY":0.00020807,"INCLINATION":87.8765,"RA_OF_ASC_NODE":57.9924,"ARG_OF_PERICENTER":88.8987,"MEAN_ANOMALY":271.2379,"EPHEMERIS_TYPE":0,"CLASSIFICATION_TYPE":"U","NORAD_CAT_ID":51639,"ELEMENT_SET_NO":999,"REV_AT_EPOCH":19504,"BSTAR":-0.00017649495,"MEAN_MOTION_DOT":-4.9e-7,"MEAN_MOTION_DDOT":0},{"OBJECT_NAME":"ONEWEB-0446","OBJECT_ID":"2022-012U","EPOCH":"2026-02-28T06:50:16.609344","MEAN_MOTION":13.103742,"ECCENTRICITY":0.00020267,"INCLINATION":87.8759,"RA_OF_ASC_NODE":57.9739,"ARG_OF_PERICENTER":87.2099,"MEAN_ANOMALY":272.926,"EPHEMERIS_TYPE":0,"CLASSIFICATION_TYPE":"U","NORAD_CAT_ID":51640,"ELEMENT_SET_NO":999,"REV_AT_EPOCH":19506,"BSTAR":0.0019534244,"MEAN_MOTION_DOT":6.95e-6,"MEAN_MOTION_DDOT":0},{"OBJECT_NAME":"ONEWEB-0448","OBJECT_ID":"2022-012V","EPOCH":"2026-02-28T06:57:27.073152","MEAN_MOTION":13.1037297,"ECCENTRICITY":0.00018088,"INCLINATION":87.8756,"RA_OF_ASC_NODE":57.9713,"ARG_OF_PERICENTER":89.4351,"MEAN_ANOMALY":270.6984,"EPHEMERIS_TYPE":0,"CLASSIFICATION_TYPE":"U","NORAD_CAT_ID":51641,"ELEMENT_SET_NO":999,"REV_AT_EPOCH":19503,"BSTAR":0.0019450944,"MEAN_MOTION_DOT":6.92e-6,"MEAN_MOTION_DDOT":0},{"OBJECT_NAME":"ONEWEB-0449","OBJECT_ID":"2022-012W","EPOCH":"2026-02-28T07:04:37.154208","MEAN_MOTION":13.10371407,"ECCENTRICITY":0.00016758,"INCLINATION":87.8765,"RA_OF_ASC_NODE":57.9481,"ARG_OF_PERICENTER":73.6264,"MEAN_ANOMALY":286.5047,"EPHEMERIS_TYPE":0,"CLASSIFICATION_TYPE":"U","NORAD_CAT_ID":51642,"ELEMENT_SET_NO":999,"REV_AT_EPOCH":19504,"BSTAR":0.001741861,"MEAN_MOTION_DOT":6.21e-6,"MEAN_MOTION_DDOT":0},{"OBJECT_NAME":"ONEWEB-0451","OBJECT_ID":"2022-012X","EPOCH":"2026-02-27T22:28:51.259296","MEAN_MOTION":13.17648368,"ECCENTRICITY":0.0001828,"INCLINATION":87.9141,"RA_OF_ASC_NODE":27.5288,"ARG_OF_PERICENTER":79.1471,"MEAN_ANOMALY":280.9866,"EPHEMERIS_TYPE":0,"CLASSIFICATION_TYPE":"U","NORAD_CAT_ID":51643,"ELEMENT_SET_NO":999,"REV_AT_EPOCH":19927,"BSTAR":-5.6599e-5,"MEAN_MOTION_DOT":-9.0e-8,"MEAN_MOTION_DDOT":0},{"OBJECT_NAME":"ONEWEB-0452","OBJECT_ID":"2022-012Y","EPOCH":"2026-02-28T03:54:28.455840","MEAN_MOTION":13.17648943,"ECCENTRICITY":0.00015985,"INCLINATION":87.913,"RA_OF_ASC_NODE":27.5312,"ARG_OF_PERICENTER":77.9209,"MEAN_ANOMALY":282.2102,"EPHEMERIS_TYPE":0,"CLASSIFICATION_TYPE":"U","NORAD_CAT_ID":51644,"ELEMENT_SET_NO":999,"REV_AT_EPOCH":19931,"BSTAR":0.00012633098,"MEAN_MOTION_DOT":6.2e-7,"MEAN_MOTION_DDOT":0},{"OBJECT_NAME":"ONEWEB-0456","OBJECT_ID":"2022-012AA","EPOCH":"2026-02-28T05:28:59.242080","MEAN_MOTION":13.10369242,"ECCENTRICITY":0.00018169,"INCLINATION":87.8773,"RA_OF_ASC_NODE":57.939,"ARG_OF_PERICENTER":93.3696,"MEAN_ANOMALY":266.7639,"EPHEMERIS_TYPE":0,"CLASSIFICATION_TYPE":"U","NORAD_CAT_ID":51646,"ELEMENT_SET_NO":999,"REV_AT_EPOCH":19507,"BSTAR":0.00026123903,"MEAN_MOTION_DOT":1.04e-6,"MEAN_MOTION_DDOT":0},{"OBJECT_NAME":"ONEWEB-0457","OBJECT_ID":"2022-012AB","EPOCH":"2026-02-28T06:45:30.644352","MEAN_MOTION":13.103773,"ECCENTRICITY":0.00021902,"INCLINATION":87.8761,"RA_OF_ASC_NODE":57.9618,"ARG_OF_PERICENTER":78.3862,"MEAN_ANOMALY":281.7511,"EPHEMERIS_TYPE":0,"CLASSIFICATION_TYPE":"U","NORAD_CAT_ID":51647,"ELEMENT_SET_NO":999,"REV_AT_EPOCH":19508,"BSTAR":0.0017039295,"MEAN_MOTION_DOT":6.08e-6,"MEAN_MOTION_DDOT":0}]
